CCSDS_OMM_VERS = 2.0
CREATION_DATE  = 
ORIGINATOR     = 

OBJECT_NAME    = SL-16 R/B
OBJECT_ID      = 1992-093B
CENTER_NAME    = EARTH
REF_FRAME      = TEME
TIME_SYSTEM    = UTC
MEAN_ELEMENT_THEORY = SGP/SGP4

EPOCH          = 2025-11-12T13:37:11.063424
MEAN_MOTION    = 14.15423976
ECCENTRICITY   = .0002818
INCLINATION    = 71.0215
RA_OF_ASC_NODE = 250.1300
ARG_OF_PERICENTER = 154.7205
MEAN_ANOMALY   = 205.4056

EPHEMERIS_TYPE = 0
CLASSIFICATION_TYPE = U
NORAD_CAT_ID   = 22285
ELEMENT_SET_NO = 999
REV_AT_EPOCH   = 69658
BSTAR          = .22825E-3
MEAN_MOTION_DOT = .398E-5
MEAN_MOTION_DDOT = 0

CCSDS_OMM_VERS = 2.0
CREATION_DATE  = 
ORIGINATOR     = 

OBJECT_NAME    = COSMOS 2228
OBJECT_ID      = 1992-094A
CENTER_NAME    = EARTH
REF_FRAME      = TEME
TIME_SYSTEM    = UTC
MEAN_ELEMENT_THEORY = SGP/SGP4

EPOCH          = 2025-11-12T19:18:29.653632
MEAN_MOTION    = 14.96529272
ECCENTRICITY   = .0017322
INCLINATION    = 82.5193
RA_OF_ASC_NODE = 349.1753
ARG_OF_PERICENTER = 340.4494
MEAN_ANOMALY   = 19.6061

EPHEMERIS_TYPE = 0
CLASSIFICATION_TYPE = U
NORAD_CAT_ID   = 22286
ELEMENT_SET_NO = 999
REV_AT_EPOCH   = 75857
BSTAR          = .42707E-3
MEAN_MOTION_DOT = .4893E-4
MEAN_MOTION_DDOT = 0

CCSDS_OMM_VERS = 2.0
CREATION_DATE  = 
ORIGINATOR     = 

OBJECT_NAME    = SL-16 R/B
OBJECT_ID      = 1993-016B
CENTER_NAME    = EARTH
REF_FRAME      = TEME
TIME_SYSTEM    = UTC
MEAN_ELEMENT_THEORY = SGP/SGP4

EPOCH          = 2025-11-12T16:00:22.568832
MEAN_MOTION    = 14.15280330
ECCENTRICITY   = .0009127
INCLINATION    = 71.0057
RA_OF_ASC_NODE = 100.9617
ARG_OF_PERICENTER = 152.4184
MEAN_ANOMALY   = 207.7425

EPHEMERIS_TYPE = 0
CLASSIFICATION_TYPE = U
NORAD_CAT_ID   = 22566
ELEMENT_SET_NO = 999
REV_AT_EPOCH   = 68561
BSTAR          = .1833E-3
MEAN_MOTION_DOT = .309E-5
MEAN_MOTION_DDOT = 0

CCSDS_OMM_VERS = 2.0
CREATION_DATE  = 
ORIGINATOR     = 

OBJECT_NAME    = COSMOS 2242
OBJECT_ID      = 1993-024A
CENTER_NAME    = EARTH
REF_FRAME      = TEME
TIME_SYSTEM    = UTC
MEAN_ELEMENT_THEORY = SGP/SGP4

EPOCH          = 2025-11-12T12:53:24.771264
MEAN_MOTION    = 14.95924498
ECCENTRICITY   = .0015858
INCLINATION    = 82.5214
RA_OF_ASC_NODE = 18.7058
ARG_OF_PERICENTER = 344.3709
MEAN_ANOMALY   = 15.7021

EPHEMERIS_TYPE = 0
CLASSIFICATION_TYPE = U
NORAD_CAT_ID   = 22626
ELEMENT_SET_NO = 999
REV_AT_EPOCH   = 76287
BSTAR          = .41316E-3
MEAN_MOTION_DOT = .466E-4
MEAN_MOTION_DDOT = 0

CCSDS_OMM_VERS = 2.0
CREATION_DATE  = 
ORIGINATOR     = 

OBJECT_NAME    = SL-16 R/B
OBJECT_ID      = 1993-059B
CENTER_NAME    = EARTH
REF_FRAME      = TEME
TIME_SYSTEM    = UTC
MEAN_ELEMENT_THEORY = SGP/SGP4

EPOCH          = 2025-11-12T05:46:29.162784
MEAN_MOTION    = 14.17205036
ECCENTRICITY   = .00161199
INCLINATION    = 70.9899
RA_OF_ASC_NODE = 258.7977
ARG_OF_PERICENTER = 22.0003
MEAN_ANOMALY   = 338.1810

EPHEMERIS_TYPE = 0
CLASSIFICATION_TYPE = U
NORAD_CAT_ID   = 22803
ELEMENT_SET_NO = 999
REV_AT_EPOCH   = 66289
BSTAR          = .21582621E-3
MEAN_MOTION_DOT = .388E-5
MEAN_MOTION_DDOT = 0

CCSDS_OMM_VERS = 2.0
CREATION_DATE  = 
ORIGINATOR     = 

OBJECT_NAME    = ARIANE 40 R/B
OBJECT_ID      = 1993-061H
CENTER_NAME    = EARTH
REF_FRAME      = TEME
TIME_SYSTEM    = UTC
MEAN_ELEMENT_THEORY = SGP/SGP4

EPOCH          = 2025-11-12T14:09:00.175104
MEAN_MOTION    = 14.32772790
ECCENTRICITY   = .0009612
INCLINATION    = 98.5112
RA_OF_ASC_NODE = 22.6630
ARG_OF_PERICENTER = 270.5889
MEAN_ANOMALY   = 89.4194

EPHEMERIS_TYPE = 0
CLASSIFICATION_TYPE = U
NORAD_CAT_ID   = 22830
ELEMENT_SET_NO = 999
REV_AT_EPOCH   = 67733
BSTAR          = .21583E-3
MEAN_MOTION_DOT = .545E-5
MEAN_MOTION_DDOT = 0

CCSDS_OMM_VERS = 2.0
CREATION_DATE  = 
ORIGINATOR     = 

OBJECT_NAME    = COSMOS 2278
OBJECT_ID      = 1994-023A
CENTER_NAME    = EARTH
REF_FRAME      = TEME
TIME_SYSTEM    = UTC
MEAN_ELEMENT_THEORY = SGP/SGP4

EPOCH          = 2025-11-12T16:33:24.047424
MEAN_MOTION    = 14.14337591
ECCENTRICITY   = .0010023
INCLINATION    = 71.0540
RA_OF_ASC_NODE = 59.8762
ARG_OF_PERICENTER = 217.9336
MEAN_ANOMALY   = 142.1081

EPHEMERIS_TYPE = 0
CLASSIFICATION_TYPE = U
NORAD_CAT_ID   = 23087
ELEMENT_SET_NO = 999
REV_AT_EPOCH   = 62826
BSTAR          = .28075E-3
MEAN_MOTION_DOT = .49E-5
MEAN_MOTION_DDOT = 0

CCSDS_OMM_VERS = 2.0
CREATION_DATE  = 
ORIGINATOR     = 

OBJECT_NAME    = SL-16 R/B
OBJECT_ID      = 1994-023B
CENTER_NAME    = EARTH
REF_FRAME      = TEME
TIME_SYSTEM    = UTC
MEAN_ELEMENT_THEORY = SGP/SGP4

EPOCH          = 2025-11-12T07:04:44.058432
MEAN_MOTION    = 14.14992660
ECCENTRICITY   = .00013909
INCLINATION    = 70.9996
RA_OF_ASC_NODE = 317.4228
ARG_OF_PERICENTER = 164.8083
MEAN_ANOMALY   = 195.3081

EPHEMERIS_TYPE = 0
CLASSIFICATION_TYPE = U
NORAD_CAT_ID   = 23088
ELEMENT_SET_NO = 999
REV_AT_EPOCH   = 62948
BSTAR          = -.44493996E-4
MEAN_MOTION_DOT = -.134E-5
MEAN_MOTION_DDOT = 0

CCSDS_OMM_VERS = 2.0
CREATION_DATE  = 
ORIGINATOR     = 

OBJECT_NAME    = SL-16 R/B
OBJECT_ID      = 1994-074B
CENTER_NAME    = EARTH
REF_FRAME      = TEME
TIME_SYSTEM    = UTC
MEAN_ELEMENT_THEORY = SGP/SGP4

EPOCH          = 2025-11-12T20:46:19.154208
MEAN_MOTION    = 14.79238249
ECCENTRICITY   = .000534
INCLINATION    = 97.7242
RA_OF_ASC_NODE = 347.3521
ARG_OF_PERICENTER = 234.6214
MEAN_ANOMALY   = 298.2446

EPHEMERIS_TYPE = 0
CLASSIFICATION_TYPE = U
NORAD_CAT_ID   = 23343
ELEMENT_SET_NO = 999
REV_AT_EPOCH   = 66997
BSTAR          = .14915E-3
MEAN_MOTION_DOT = .1059E-4
MEAN_MOTION_DDOT = 0

CCSDS_OMM_VERS = 2.0
CREATION_DATE  = 
ORIGINATOR     = 

OBJECT_NAME    = SL-16 R/B
OBJECT_ID      = 1994-077B
CENTER_NAME    = EARTH
REF_FRAME      = TEME
TIME_SYSTEM    = UTC
MEAN_ELEMENT_THEORY = SGP/SGP4

EPOCH          = 2025-11-12T12:49:28.565760
MEAN_MOTION    = 14.15544641
ECCENTRICITY   = .0003943
INCLINATION    = 70.9829
RA_OF_ASC_NODE = 238.9553
ARG_OF_PERICENTER = 309.1872
MEAN_ANOMALY   = 50.8901

EPHEMERIS_TYPE = 0
CLASSIFICATION_TYPE = U
NORAD_CAT_ID   = 23405
ELEMENT_SET_NO = 999
REV_AT_EPOCH   = 59965
BSTAR          = .19811E-3
MEAN_MOTION_DOT = .34E-5
MEAN_MOTION_DDOT = 0

CCSDS_OMM_VERS = 2.0
CREATION_DATE  = 
ORIGINATOR     = 

OBJECT_NAME    = ARIANE 40+ R/B
OBJECT_ID      = 1995-021B
CENTER_NAME    = EARTH
REF_FRAME      = TEME
TIME_SYSTEM    = UTC
MEAN_ELEMENT_THEORY = SGP/SGP4

EPOCH          = 2025-11-12T15:53:58.409376
MEAN_MOTION    = 14.39660351
ECCENTRICITY   = .0007694
INCLINATION    = 98.4687
RA_OF_ASC_NODE = 24.6098
ARG_OF_PERICENTER = 127.9085
MEAN_ANOMALY   = 33.9723

EPHEMERIS_TYPE = 0
CLASSIFICATION_TYPE = U
NORAD_CAT_ID   = 23561
ELEMENT_SET_NO = 999
REV_AT_EPOCH   = 60240
BSTAR          = .25118E-3
MEAN_MOTION_DOT = .742E-5
MEAN_MOTION_DDOT = 0

CCSDS_OMM_VERS = 2.0
CREATION_DATE  = 
ORIGINATOR     = 

OBJECT_NAME    = SL-16 R/B
OBJECT_ID      = 1995-058B
CENTER_NAME    = EARTH
REF_FRAME      = TEME
TIME_SYSTEM    = UTC
MEAN_ELEMENT_THEORY = SGP/SGP4

EPOCH          = 2025-11-12T14:32:54.556800
MEAN_MOTION    = 14.15476699
ECCENTRICITY   = .0014849
INCLINATION    = 71.0226
RA_OF_ASC_NODE = 66.0666
ARG_OF_PERICENTER = 294.1505
MEAN_ANOMALY   = 65.8065

EPHEMERIS_TYPE = 0
CLASSIFICATION_TYPE = U
NORAD_CAT_ID   = 23705
ELEMENT_SET_NO = 999
REV_AT_EPOCH   = 55128
BSTAR          = .15203E-4
MEAN_MOTION_DOT = -.18E-6
MEAN_MOTION_DDOT = 0

